{
  "type": "FeatureCollection",
  "features": [
    {
      "type": "Feature",
      "properties": {
        "norad_id": 66648,
        "name": "COSMOS 2598 (RODNIK-S 23)",
        "group": "last-30-days",
        "lat": 81.18022076835048,
        "lon": -15.330286368820287,
        "alt_km": 1491.0741332704047,
        "timestamp": "2025-12-12T11:38:30.170671+00:00",
        "meta_object_name": "COSMOS 2598 (RODNIK-S 23)",
        "meta_object_id": "2025-273B",
        "meta_epoch": "2025-12-12T03:27:29.335392",
        "meta_mean_motion": 12.43233324,
        "meta_eccentricity": 0.0007983,
        "meta_inclination": 82.5028,
        "meta_ra_of_asc_node": 286.8201,
        "meta_arg_of_pericenter": 238.4797,
        "meta_mean_anomaly": 121.5503,
        "meta_ephemeris_type": 0,
        "meta_classification_type": "U",
        "meta_norad_cat_id": 66648,
        "meta_element_set_no": 999,
        "meta_rev_at_epoch": 206,
        "meta_bstar": -4.3859e-05,
        "meta_mean_motion_dot": 4e-08,
        "meta_mean_motion_ddot": 0,
        "tle_line1": "1 66648U 25273B   25346.14408953  .00000004  00000+0 -43859-4 0  9990",
        "tle_line2": "2 66648  82.5028 286.8201 0007983 238.4797 121.5503 12.43233324  2063"
      },
      "geometry": {
        "type": "Point",
        "coordinates": [
          -15.330286368820287,
          81.18022076835048
        ]
      }
    },
    {
      "type": "Feature",
      "properties": {
        "norad_id": 66649,
        "name": "COSMOS 2599 (RODNIK-S 24)",
        "group": "last-30-days",
        "lat": 33.62903183586607,
        "lon": -68.3513825600945,
        "alt_km": 1497.7690001204692,
        "timestamp": "2025-12-12T11:38:30.170683+00:00",
        "meta_object_name": "COSMOS 2599 (RODNIK-S 24)",
        "meta_object_id": "2025-273C",
        "meta_epoch": "2025-12-11T21:55:21.925344",
        "meta_mean_motion": 12.41672474,
        "meta_eccentricity": 0.0007865,
        "meta_inclination": 82.5028,
        "meta_ra_of_asc_node": 286.9787,
        "meta_arg_of_pericenter": 300.1645,
        "meta_mean_anomaly": 59.8654,
        "meta_ephemeris_type": 0,
        "meta_classification_type": "U",
        "meta_norad_cat_id": 66649,
        "meta_element_set_no": 999,
        "meta_rev_at_epoch": 203,
        "meta_bstar": 0.00012924,
        "meta_mean_motion_dot": 2.7e-07,
        "meta_mean_motion_ddot": 0,
        "tle_line1": "1 66649U 25273C   25345.91344821  .00000027  00000+0  12924-3 0  9990",
        "tle_line2": "2 66649  82.5028 286.9787 0007865 300.1645  59.8654 12.41672474  2030"
      },
      "geometry": {
        "type": "Point",
        "coordinates": [
          -68.3513825600945,
          33.62903183586607
        ]
      }
    },
    {
      "type": "Feature",
      "properties": {
        "norad_id": 66650,
        "name": "BEE-1000",
        "group": "last-30-days",
        "lat": 5.083305817067324,
        "lon": -87.0158629248009,
        "alt_km": 597.876778379863,
        "timestamp": "2025-12-12T11:38:30.170694+00:00",
        "meta_object_name": "BEE-1000",
        "meta_object_id": "2025-274A",
        "meta_epoch": "2025-12-11T17:54:33.802848",
        "meta_mean_motion": 14.91655948,
        "meta_eccentricity": 0.00103819,
        "meta_inclination": 97.7385,
        "meta_ra_of_asc_node": 272.9521,
        "meta_arg_of_pericenter": 255.1858,
        "meta_mean_anomaly": 104.8211,
        "meta_ephemeris_type": 0,
        "meta_classification_type": "U",
        "meta_norad_cat_id": 66650,
        "meta_element_set_no": 999,
        "meta_rev_at_epoch": 225,
        "meta_bstar": 0.00031673301,
        "meta_mean_motion_dot": 3.13e-05,
        "meta_mean_motion_ddot": 0,
        "tle_line1": "1 66650U 25274A   25345.74622457  .00003130  00000+0  31673-3 0  9998",
        "tle_line2": "2 66650  97.7385 272.9521 0010381 255.1858 104.8211 14.91655948  2257"
      },
      "geometry": {
        "type": "Point",
        "coordinates": [
          -87.0158629248009,
          5.083305817067324
        ]
      }
    },
    {
      "type": "Feature",
      "properties": {
        "norad_id": 66651,
        "name": "2025-274B",
        "group": "last-30-days",
        "lat": 9.883955917159842,
        "lon": -87.67908937279297,
        "alt_km": 597.5098740982339,
        "timestamp": "2025-12-12T11:38:30.170704+00:00",
        "meta_object_name": "2025-274B",
        "meta_object_id": "2025-274B",
        "meta_epoch": "2025-12-11T16:16:46.123104",
        "meta_mean_motion": 14.91785025,
        "meta_eccentricity": 0.0010633,
        "meta_inclination": 97.7379,
        "meta_ra_of_asc_node": 272.8866,
        "meta_arg_of_pericenter": 254.4704,
        "meta_mean_anomaly": 105.5341,
        "meta_ephemeris_type": 0,
        "meta_classification_type": "U",
        "meta_norad_cat_id": 66651,
        "meta_element_set_no": 999,
        "meta_rev_at_epoch": 224,
        "meta_bstar": 0.0006581767,
        "meta_mean_motion_dot": 6.59e-05,
        "meta_mean_motion_ddot": 0,
        "tle_line1": "1 66651U 25274B   25345.67831161  .00006590  00000+0  65818-3 0  9996",
        "tle_line2": "2 66651  97.7379 272.8866 0010633 254.4704 105.5341 14.91785025  2245"
      },
      "geometry": {
        "type": "Point",
        "coordinates": [
          -87.67908937279297,
          9.883955917159842
        ]
      }
    },
    {
      "type": "Feature",
      "properties": {
        "norad_id": 66652,
        "name": "2025-274C",
        "group": "last-30-days",
        "lat": 17.42571356673642,
        "lon": -88.76355472936892,
        "alt_km": 596.015544799272,
        "timestamp": "2025-12-12T11:38:30.170713+00:00",
        "meta_object_name": "2025-274C",
        "meta_object_id": "2025-274C",
        "meta_epoch": "2025-12-11T17:51:23.187168",
        "meta_mean_motion": 14.91888932,
        "meta_eccentricity": 0.00103118,
        "meta_inclination": 97.7385,
        "meta_ra_of_asc_node": 272.9551,
        "meta_arg_of_pericenter": 261.2729,
        "meta_mean_anomaly": 98.7322,
        "meta_ephemeris_type": 0,
        "meta_classification_type": "U",
        "meta_norad_cat_id": 66652,
        "meta_element_set_no": 999,
        "meta_rev_at_epoch": 225,
        "meta_bstar": 0.00036360506,
        "meta_mean_motion_dot": 3.623e-05,
        "meta_mean_motion_ddot": 0,
        "tle_line1": "1 66652U 25274C   25345.74401837  .00003623  00000+0  36361-3 0  9993",
        "tle_line2": "2 66652  97.7385 272.9551 0010311 261.2729  98.7322 14.91888932  2255"
      },
      "geometry": {
        "type": "Point",
        "coordinates": [
          -88.76355472936892,
          17.42571356673642
        ]
      }
    },
    {
      "type": "Feature",
      "properties": {
        "norad_id": 66653,
        "name": "2025-274D",
        "group": "last-30-days",
        "lat": 17.813974474906093,
        "lon": -88.82178204318281,
        "alt_km": 596.7313825109522,
        "timestamp": "2025-12-12T11:38:30.170723+00:00",
        "meta_object_name": "2025-274D",
        "meta_object_id": "2025-274D",
        "meta_epoch": "2025-12-11T16:14:42.336096",
        "meta_mean_motion": 14.91896866,
        "meta_eccentricity": 0.00111829,
        "meta_inclination": 97.7384,
        "meta_ra_of_asc_node": 272.8891,
        "meta_arg_of_pericenter": 257.4696,
        "meta_mean_anomaly": 102.5272,
        "meta_ephemeris_type": 0,
        "meta_classification_type": "U",
        "meta_norad_cat_id": 66653,
        "meta_element_set_no": 999,
        "meta_rev_at_epoch": 224,
        "meta_bstar": 0.00045752269,
        "meta_mean_motion_dot": 4.576e-05,
        "meta_mean_motion_ddot": 0,
        "tle_line1": "1 66653U 25274D   25345.67687889  .00004576  00000+0  45752-3 0  9991",
        "tle_line2": "2 66653  97.7384 272.8891 0011182 257.4696 102.5272 14.91896866  2240"
      },
      "geometry": {
        "type": "Point",
        "coordinates": [
          -88.82178204318281,
          17.813974474906093
        ]
      }
    },
    {
      "type": "Feature",
      "properties": {
        "norad_id": 66654,
        "name": "JACK E",
        "group": "last-30-days",
        "lat": 27.239847619794222,
        "lon": -90.32713030058069,
        "alt_km": 595.8026394086155,
        "timestamp": "2025-12-12T11:38:30.170735+00:00",
        "meta_object_name": "JACK E",
        "meta_object_id": "2025-274E",
        "meta_epoch": "2025-12-11T16:12:17.136576",
        "meta_mean_motion": 14.92072341,
        "meta_eccentricity": 0.00117825,
        "meta_inclination": 97.7385,
        "meta_ra_of_asc_node": 272.8918,
        "meta_arg_of_pericenter": 259.1975,
        "meta_mean_anomaly": 100.7918,
        "meta_ephemeris_type": 0,
        "meta_classification_type": "U",
        "meta_norad_cat_id": 66654,
        "meta_element_set_no": 999,
        "meta_rev_at_epoch": 224,
        "meta_bstar": 0.0004718704,
        "meta_mean_motion_dot": 4.743e-05,
        "meta_mean_motion_ddot": 0,
        "tle_line1": "1 66654U 25274E   25345.67519834  .00004743  00000+0  47187-3 0  9996",
        "tle_line2": "2 66654  97.7385 272.8918 0011782 259.1975 100.7918 14.92072341  2249"
      },
      "geometry": {
        "type": "Point",
        "coordinates": [
          -90.32713030058069,
          27.239847619794222
        ]
      }
    }
  ]
}